[{"OBJECT_NAME":"HAWK-11B","OBJECT_ID":"2024-247C","EPOCH":"2026-03-09T10:44:06.809856","MEAN_MOTION":15.2884707,"ECCENTRICITY":0.00046902,"INCLINATION":45.0161,"RA_OF_ASC_NODE":115.761,"ARG_OF_PERICENTER":333.0326,"MEAN_ANOMALY":27.0314,"EPHEMERIS_TYPE":0,"CLASSIFICATION_TYPE":"U","NORAD_CAT_ID":62379,"ELEMENT_SET_NO":999,"REV_AT_EPOCH":6773,"BSTAR":0.00032841927,"MEAN_MOTION_DOT":9.093e-5,"MEAN_MOTION_DDOT":0},{"OBJECT_NAME":"STARLINK-35965","OBJECT_ID":"2025-271Q","EPOCH":"2026-03-09T12:23:46.654944","MEAN_MOTION":15.30231015,"ECCENTRICITY":0.00015725,"INCLINATION":53.1595,"RA_OF_ASC_NODE":140.4931,"ARG_OF_PERICENTER":73.2754,"MEAN_ANOMALY":286.8419,"EPHEMERIS_TYPE":0,"CLASSIFICATION_TYPE":"U","NORAD_CAT_ID":66631,"ELEMENT_SET_NO":999,"REV_AT_EPOCH":1754,"BSTAR":0.00087008254,"MEAN_MOTION_DOT":0.00025523,"MEAN_MOTION_DDOT":0}]
