HAWK-11B                
1 62379U 24247C   26068.44730104  .00009093  00000+0  32842-3 0  9993
2 62379  45.0161 115.7610 0004690 333.0326  27.0314 15.28847070 67738
STARLINK-35965          
1 66631U 25271Q   26068.51651221  .00025523  00000+0  87008-3 0  9996
2 66631  53.1595 140.4931 0001572  73.2754 286.8419 15.30231015 17543
